GLOBALSTAR M068 [-]     
1 32266U 07048D   23268.70453409 -.00000080  00000+0  13432-3 0  9995
2 32266  51.9889  64.0792 0001114 140.3569 232.9059 12.62766667737909
GLOBALSTAR M079 [+]     
1 37188U 10054A   23268.73805856 -.00000084  00000+0  11254-3 0  9998
2 37188  52.0023 258.9762 0000432  50.3935 120.3122 12.62268036596832
GLOBALSTAR M074 [+]     
1 37189U 10054B   23268.68537891 -.00000090  00000+0  78751-4 0  9997
2 37189  52.0001 258.5565 0000409  79.2966  92.1089 12.62270088597439
GLOBALSTAR M076 [+]     
1 37190U 10054C   23269.42282094 -.00000105  00000+0 -61804-5 0  9994
2 37190  52.0021 256.4248 0000974  61.4428 103.1088 12.62261318597608
GLOBALSTAR M077 [+]     
1 37191U 10054D   23268.61938872 -.00000110  00000+0 -35084-4 0  9993
2 37191  52.0066 215.5461 0000505  73.1411  97.2763 12.62263898597511
GLOBALSTAR M075 [+]     
1 37192U 10054E   23269.42301309 -.00000069  00000+0  19556-3 0  9990
2 37192  51.9947 299.0341 0000378  62.9172  41.7985 12.62261673596844
GLOBALSTAR M073 [+]     
1 37193U 10054F   23268.56657987 -.00000107  00000+0 -19544-4 0  9993
2 37193  52.0051 214.9766 0000541  62.1265 109.1195 12.62267647598196
GLOBALSTAR M083 [+]     
1 37739U 11033A   23268.87563758 -.00000096  00000+0  42824-4 0  9996
2 37739  51.9850 163.6279 0000433  58.6774  18.8885 12.62269375567256
GLOBALSTAR M088 [+]     
1 37740U 11033B   23268.77619532 -.00000092  00000+0  64193-4 0  9998
2 37740  51.9735  69.9508 0000555  73.4730  31.4259 12.62265852562780
GLOBALSTAR M091 [+]     
1 37741U 11033C   23269.49611760 -.00000105  00000+0 -79385-5 0  9990
2 37741  52.0021  30.1876 0000422  77.5579 359.7063 12.62266421563927
GLOBALSTAR M085 [+]     
1 37742U 11033D   23269.40427065 -.00000100  00000+0  22456-4 0  9995
2 37742  51.9895 342.0653 0000288  88.6229 351.9711 12.62262940564655
GLOBALSTAR M081 [+]     
1 37743U 11033E   23269.17931837 -.00000083  00000+0  11671-3 0  9993
2 37743  51.9985 345.1489 0000444  63.0794 314.6043 12.62264523564669
GLOBALSTAR M089 [+]     
1 37744U 11033F   23269.39611531 -.00000063  00000+0  22859-3 0  9992
2 37744  51.9930 298.8366 0000642  88.8137  14.0280 12.62267318565406
GLOBALSTAR M084 [+]     
1 38040U 11080A   23268.92940679 -.00000085  00000+0  10430-3 0  9996
2 38040  52.0001 167.2106 0000882  76.9904   3.3514 12.62266290543072
GLOBALSTAR M080 [+]     
1 38041U 11080B   23268.90253503 -.00000091  00000+0  71717-4 0  9991
2 38041  52.0053 168.6769 0001048  67.9641  10.5975 12.62264703543194
GLOBALSTAR M082 [+]     
1 38042U 11080C   23268.92127291 -.00000079  00000+0  14044-3 0  9993
2 38042  52.0060 123.9987 0000176  96.7025   7.5016 12.62271171543904
GLOBALSTAR M092 [+]     
1 38043U 11080D   23269.04792045 -.00000108  00000+0 -22010-4 0  9990
2 38043  52.0076 213.9548 0000737  90.2303 350.0757 12.62272168542584
GLOBALSTAR M090 [+]     
1 38044U 11080E   23269.04003317 -.00000075  00000+0  16115-3 0  9998
2 38044  51.9868 118.2578 0000532  61.0000 103.3148 12.62277935544071
GLOBALSTAR M086 [+]     
1 38045U 11080F   23268.89422751 -.00000072  00000+0  17535-3 0  9992
2 38045  51.9883 119.2026 0001392  33.7536  68.2573 12.62262859543960
GLOBALSTAR M097 [+]     
1 39072U 13005A   23268.81936339 -.00000108  00000+0 -21942-4 0  9995
2 39072  52.0069  33.3370 0000432  77.0432 283.0483 12.62270682491206
GLOBALSTAR M093 [+]     
1 39073U 13005B   23269.34707471 -.00000103  00000+0  39359-5 0  9994
2 39073  51.9834  26.0416 0000404  47.0536 313.0364 12.62266755491349
GLOBALSTAR M094 [+]     
1 39074U 13005C   23268.79284750 -.00000070  00000+0  19043-3 0  9992
2 39074  51.9958 301.4858 0000322  63.2900 296.8000 12.62267872492764
GLOBALSTAR M096 [+]     
1 39075U 13005D   23268.96426889 -.00000065  00000+0  21509-3 0  9997
2 39075  52.0102 348.9837 0000345  71.7483 288.3421 12.62264157492054
GLOBALSTAR M078 [+]     
1 39076U 13005E   23268.77925471 -.00000092  00000+0  65016-4 0  9990
2 39076  51.9871  74.9087 0000725 177.6561 182.4309 12.62261523490303
GLOBALSTAR M095 [+]     
1 39077U 13005F   23268.72692302 -.00000100  00000+0  20883-4 0  9993
2 39077  51.9796  72.5809 0000157 140.7751 219.3127 12.62269007490153
GLOBALSTAR M087 [+]     
1 52888U 22064A   23268.69127129 -.00000105  00000+0  44892-4 0  9990
2 52888  51.9765  54.1356 0010045  53.9415 306.2415 13.37553120 61993
